[{"OBJECT_NAME":"ALSAT-1N","OBJECT_ID":"2016-059G","EPOCH":"2026-04-27T12:22:17.387328","MEAN_MOTION":14.69221177,"ECCENTRICITY":0.0025892,"INCLINATION":97.8025,"RA_OF_ASC_NODE":123.1249,"ARG_OF_PERICENTER":353.5923,"MEAN_ANOMALY":6.4948,"EPHEMERIS_TYPE":0,"CLASSIFICATION_TYPE":"U","NORAD_CAT_ID":41789,"ELEMENT_SET_NO":999,"REV_AT_EPOCH":51256,"BSTAR":0.00016182,"MEAN_MOTION_DOT":9.11e-6,"MEAN_MOTION_DDOT":0},{"OBJECT_NAME":"CAS-2T & KS-1Q","OBJECT_ID":"2016-066G","EPOCH":"2026-04-27T11:16:18.095232","MEAN_MOTION":14.44569285,"ECCENTRICITY":0.0340938,"INCLINATION":98.383,"RA_OF_ASC_NODE":193.7778,"ARG_OF_PERICENTER":283.5065,"MEAN_ANOMALY":72.8358,"EPHEMERIS_TYPE":0,"CLASSIFICATION_TYPE":"U","NORAD_CAT_ID":41847,"ELEMENT_SET_NO":999,"REV_AT_EPOCH":49747,"BSTAR":0.0001076,"MEAN_MOTION_DOT":6.92e-6,"MEAN_MOTION_DDOT":0},{"OBJECT_NAME":"YUNHAI-1 01","OBJECT_ID":"2016-068A","EPOCH":"2026-04-27T11:08:04.204320","MEAN_MOTION":14.32703625,"ECCENTRICITY":0.0005259,"INCLINATION":98.5862,"RA_OF_ASC_NODE":128.9392,"ARG_OF_PERICENTER":170.5383,"MEAN_ANOMALY":189.5901,"EPHEMERIS_TYPE":0,"CLASSIFICATION_TYPE":"U","NORAD_CAT_ID":41857,"ELEMENT_SET_NO":999,"REV_AT_EPOCH":49456,"BSTAR":0.00019505,"MEAN_MOTION_DOT":4.87e-6,"MEAN_MOTION_DDOT":0},{"OBJECT_NAME":"RESOURCESAT-2A","OBJECT_ID":"2016-074A","EPOCH":"2026-04-27T11:10:41.651904","MEAN_MOTION":14.21619569,"ECCENTRICITY":0.000159,"INCLINATION":98.7537,"RA_OF_ASC_NODE":191.381,"ARG_OF_PERICENTER":196.8867,"MEAN_ANOMALY":163.2257,"EPHEMERIS_TYPE":0,"CLASSIFICATION_TYPE":"U","NORAD_CAT_ID":41877,"ELEMENT_SET_NO":999,"REV_AT_EPOCH":48709,"BSTAR":0.00026246,"MEAN_MOTION_DOT":5.31e-6,"MEAN_MOTION_DDOT":0},{"OBJECT_NAME":"TANSAT","OBJECT_ID":"2016-081A","EPOCH":"2026-04-27T12:45:08.856864","MEAN_MOTION":14.59906924,"ECCENTRICITY":0.0021746,"INCLINATION":98.5373,"RA_OF_ASC_NODE":116.2949,"ARG_OF_PERICENTER":104.3459,"MEAN_ANOMALY":256.0156,"EPHEMERIS_TYPE":0,"CLASSIFICATION_TYPE":"U","NORAD_CAT_ID":41898,"ELEMENT_SET_NO":999,"REV_AT_EPOCH":49723,"BSTAR":0.0001338,"MEAN_MOTION_DOT":5.92e-6,"MEAN_MOTION_DDOT":0},{"OBJECT_NAME":"JILIN-1 03","OBJECT_ID":"2017-002B","EPOCH":"2026-04-27T12:06:00.447840","MEAN_MOTION":15.40335405,"ECCENTRICITY":0.0005959,"INCLINATION":97.1969,"RA_OF_ASC_NODE":125.3478,"ARG_OF_PERICENTER":18.303,"MEAN_ANOMALY":341.843,"EPHEMERIS_TYPE":0,"CLASSIFICATION_TYPE":"U","NORAD_CAT_ID":41914,"ELEMENT_SET_NO":999,"REV_AT_EPOCH":51405,"BSTAR":0.00035159,"MEAN_MOTION_DOT":0.00014118,"MEAN_MOTION_DDOT":0},{"OBJECT_NAME":"CARTOSAT-2D","OBJECT_ID":"2017-008A","EPOCH":"2026-04-27T12:14:20.455872","MEAN_MOTION":15.19289387,"ECCENTRICITY":0.0005606,"INCLINATION":97.4148,"RA_OF_ASC_NODE":177.7501,"ARG_OF_PERICENTER":68.2561,"MEAN_ANOMALY":291.927,"EPHEMERIS_TYPE":0,"CLASSIFICATION_TYPE":"U","NORAD_CAT_ID":41948,"ELEMENT_SET_NO":999,"REV_AT_EPOCH":50988,"BSTAR":0.00045722,"MEAN_MOTION_DOT":9.589e-5,"MEAN_MOTION_DDOT":0},{"OBJECT_NAME":"CARTOSAT-2E","OBJECT_ID":"2017-036C","EPOCH":"2026-04-27T12:38:55.208832","MEAN_MOTION":15.19317074,"ECCENTRICITY":0.0004561,"INCLINATION":97.4315,"RA_OF_ASC_NODE":178.1522,"ARG_OF_PERICENTER":121.6389,"MEAN_ANOMALY":238.5291,"EPHEMERIS_TYPE":0,"CLASSIFICATION_TYPE":"U","NORAD_CAT_ID":42767,"ELEMENT_SET_NO":999,"REV_AT_EPOCH":49045,"BSTAR":1.4868e-6,"MEAN_MOTION_DOT":-3.6e-7,"MEAN_MOTION_DDOT":0},{"OBJECT_NAME":"D-SAT","OBJECT_ID":"2017-036AF","EPOCH":"2026-04-27T10:20:24.817056","MEAN_MOTION":15.16421445,"ECCENTRICITY":0.0081967,"INCLINATION":97.5531,"RA_OF_ASC_NODE":96.5147,"ARG_OF_PERICENTER":338.9651,"MEAN_ANOMALY":20.8216,"EPHEMERIS_TYPE":0,"CLASSIFICATION_TYPE":"U","NORAD_CAT_ID":42794,"ELEMENT_SET_NO":999,"REV_AT_EPOCH":48316,"BSTAR":0.00048047,"MEAN_MOTION_DOT":0.00010111,"MEAN_MOTION_DDOT":0},{"OBJECT_NAME":"IRIDIUM 113","OBJECT_ID":"2017-039A","EPOCH":"2026-04-27T02:24:03.142368","MEAN_MOTION":14.34217689,"ECCENTRICITY":0.00019742,"INCLINATION":86.3989,"RA_OF_ASC_NODE":343.5397,"ARG_OF_PERICENTER":91.1306,"MEAN_ANOMALY":269.0116,"EPHEMERIS_TYPE":0,"CLASSIFICATION_TYPE":"U","NORAD_CAT_ID":42803,"ELEMENT_SET_NO":999,"REV_AT_EPOCH":46386,"BSTAR":1.59258e-6,"MEAN_MOTION_DOT":2.4e-7,"MEAN_MOTION_DDOT":0},{"OBJECT_NAME":"NORSAT 2","OBJECT_ID":"2017-042D","EPOCH":"2026-04-27T10:47:11.861376","MEAN_MOTION":15.20867176,"ECCENTRICITY":0.0009097,"INCLINATION":97.4015,"RA_OF_ASC_NODE":291.7428,"ARG_OF_PERICENTER":222.7978,"MEAN_ANOMALY":137.255,"EPHEMERIS_TYPE":0,"CLASSIFICATION_TYPE":"U","NORAD_CAT_ID":42828,"ELEMENT_SET_NO":999,"REV_AT_EPOCH":48002,"BSTAR":0.00053358,"MEAN_MOTION_DOT":0.00011739,"MEAN_MOTION_DDOT":0},{"OBJECT_NAME":"TECHNOSAT","OBJECT_ID":"2017-042E","EPOCH":"2026-04-27T09:06:43.242624","MEAN_MOTION":15.04644021,"ECCENTRICITY":0.0016289,"INCLINATION":97.4232,"RA_OF_ASC_NODE":276.9992,"ARG_OF_PERICENTER":266.8271,"MEAN_ANOMALY":93.1092,"EPHEMERIS_TYPE":0,"CLASSIFICATION_TYPE":"U","NORAD_CAT_ID":42829,"ELEMENT_SET_NO":999,"REV_AT_EPOCH":47906,"BSTAR":0.00031603,"MEAN_MOTION_DOT":4.395e-5,"MEAN_MOTION_DDOT":0},{"OBJECT_NAME":"FLYING LAPTOP","OBJECT_ID":"2017-042G","EPOCH":"2026-04-27T12:28:36.704064","MEAN_MOTION":15.00818273,"ECCENTRICITY":0.0018023,"INCLINATION":97.4461,"RA_OF_ASC_NODE":275.0845,"ARG_OF_PERICENTER":297.9751,"MEAN_ANOMALY":61.9649,"EPHEMERIS_TYPE":0,"CLASSIFICATION_TYPE":"U","NORAD_CAT_ID":42831,"ELEMENT_SET_NO":999,"REV_AT_EPOCH":47885,"BSTAR":0.00016721,"MEAN_MOTION_DOT":2.073e-5,"MEAN_MOTION_DDOT":0},{"OBJECT_NAME":"WNISAT 1R","OBJECT_ID":"2017-042L","EPOCH":"2026-04-27T09:10:15.761568","MEAN_MOTION":15.01510812,"ECCENTRICITY":0.0012018,"INCLINATION":97.4741,"RA_OF_ASC_NODE":275.3473,"ARG_OF_PERICENTER":339.1992,"MEAN_ANOMALY":20.8742,"EPHEMERIS_TYPE":0,"CLASSIFICATION_TYPE":"U","NORAD_CAT_ID":42835,"ELEMENT_SET_NO":999,"REV_AT_EPOCH":47888,"BSTAR":0.00028411,"MEAN_MOTION_DOT":3.623e-5,"MEAN_MOTION_DDOT":0},{"OBJECT_NAME":"LEMUR-2-GREENBERG","OBJECT_ID":"2017-042N","EPOCH":"2026-04-27T10:01:06.531744","MEAN_MOTION":15.29721068,"ECCENTRICITY":0.0009451,"INCLINATION":97.381,"RA_OF_ASC_NODE":298.3442,"ARG_OF_PERICENTER":176.8618,"MEAN_ANOMALY":183.2684,"EPHEMERIS_TYPE":0,"CLASSIFICATION_TYPE":"U","NORAD_CAT_ID":42837,"ELEMENT_SET_NO":999,"REV_AT_EPOCH":48062,"BSTAR":0.00070926,"MEAN_MOTION_DOT":0.00020404,"MEAN_MOTION_DDOT":0},{"OBJECT_NAME":"LEMUR-2-FURIAUS","OBJECT_ID":"2017-042R","EPOCH":"2026-04-27T10:32:12.490080","MEAN_MOTION":15.28502438,"ECCENTRICITY":0.0006901,"INCLINATION":97.3765,"RA_OF_ASC_NODE":296.4388,"ARG_OF_PERICENTER":235.0637,"MEAN_ANOMALY":124.9955,"EPHEMERIS_TYPE":0,"CLASSIFICATION_TYPE":"U","NORAD_CAT_ID":42840,"ELEMENT_SET_NO":999,"REV_AT_EPOCH":48045,"BSTAR":0.00085677,"MEAN_MOTION_DOT":0.00023755,"MEAN_MOTION_DDOT":0},{"OBJECT_NAME":"CORVUS BC2","OBJECT_ID":"2017-042X","EPOCH":"2026-04-27T10:28:41.351808","MEAN_MOTION":15.05969643,"ECCENTRICITY":0.001135,"INCLINATION":97.4019,"RA_OF_ASC_NODE":280.7867,"ARG_OF_PERICENTER":287.8321,"MEAN_ANOMALY":72.1668,"EPHEMERIS_TYPE":0,"CLASSIFICATION_TYPE":"U","NORAD_CAT_ID":42846,"ELEMENT_SET_NO":999,"REV_AT_EPOCH":47942,"BSTAR":0.0002445,"MEAN_MOTION_DOT":3.506e-5,"MEAN_MOTION_DDOT":0}]
