ALSAT-1N                
1 41789U 16059G   26117.51547902  .00000911  00000+0  16182-3 0  9991
2 41789  97.8025 123.1249 0025892 353.5923   6.4948 14.69221177512560
CAS-2T & KS-1Q          
1 41847U 16066G   26117.46965388  .00000692  00000+0  10760-3 0  9992
2 41847  98.3830 193.7778 0340938 283.5065  72.8358 14.44569285497477
YUNHAI-1 01             
1 41857U 16068A   26117.46393755  .00000487  00000+0  19505-3 0  9996
2 41857  98.5862 128.9392 0005259 170.5383 189.5901 14.32703625494561
RESOURCESAT-2A          
1 41877U 16074A   26117.46575986  .00000531  00000+0  26246-3 0  9993
2 41877  98.7537 191.3810 0001590 196.8867 163.2257 14.21619569487099
TANSAT                  
1 41898U 16081A   26117.53135251  .00000592  00000+0  13380-3 0  9991
2 41898  98.5373 116.2949 0021746 104.3459 256.0156 14.59906924497234
JILIN-1 03              
1 41914U 17002B   26117.50417185  .00014118  00000+0  35159-3 0  9997
2 41914  97.1969 125.3478 0005959  18.3030 341.8430 15.40335405514053
CARTOSAT-2D             
1 41948U 17008A   26117.50995898  .00009589  00000+0  45722-3 0  9995
2 41948  97.4148 177.7501 0005606  68.2561 291.9270 15.19289387509887
CARTOSAT-2E             
1 42767U 17036C   26117.52702788 -.00000036  00000+0  14868-5 0  9990
2 42767  97.4315 178.1522 0004561 121.6389 238.5291 15.19317074490459
D-SAT                   
1 42794U 17036AF  26117.43084279  .00010111  00000+0  48047-3 0  9996
2 42794  97.5531  96.5147 0081967 338.9651  20.8216 15.16421445483160
IRIDIUM 113             
1 42803U 17039A   26117.10003637  .00000024  00000+0  15926-5 0  9997
2 42803  86.3989 343.5397 0001974  91.1306 269.0116 14.34217689463864
NORSAT 2                
1 42828U 17042D   26117.44944284  .00011739  00000+0  53358-3 0  9991
2 42828  97.4015 291.7428 0009097 222.7978 137.2550 15.20867176480027
TECHNOSAT               
1 42829U 17042E   26117.37966716  .00004395  00000+0  31603-3 0  9997
2 42829  97.4232 276.9992 0016289 266.8271  93.1092 15.04644021479063
FLYING LAPTOP           
1 42831U 17042G   26117.51986926  .00002073  00000+0  16721-3 0  9996
2 42831  97.4461 275.0845 0018023 297.9751  61.9649 15.00818273478858
WNISAT 1R               
1 42835U 17042L   26117.38212687  .00003623  00000+0  28411-3 0  9992
2 42835  97.4741 275.3473 0012018 339.1992  20.8742 15.01510812478887
LEMUR-2-GREENBERG       
1 42837U 17042N   26117.41743671  .00020404  00000+0  70926-3 0  9994
2 42837  97.3810 298.3442 0009451 176.8618 183.2684 15.29721068480625
LEMUR-2-FURIAUS         
1 42840U 17042R   26117.43903345  .00023755  00000+0  85677-3 0  9997
2 42840  97.3765 296.4388 0006901 235.0637 124.9955 15.28502438480453
CORVUS BC2              
1 42846U 17042X   26117.43658972  .00003506  00000+0  24450-3 0  9990
2 42846  97.4019 280.7867 0011350 287.8321  72.1668 15.05969643479429
